[{"OBJECT_NAME":"STARLINK-32083","OBJECT_ID":"2024-136Q","EPOCH":"2026-03-09T10:03:14.631840","MEAN_MOTION":15.30191097,"ECCENTRICITY":0.00013167,"INCLINATION":53.1608,"RA_OF_ASC_NODE":76.8469,"ARG_OF_PERICENTER":87.1996,"MEAN_ANOMALY":272.9155,"EPHEMERIS_TYPE":0,"CLASSIFICATION_TYPE":"U","NORAD_CAT_ID":60343,"ELEMENT_SET_NO":999,"REV_AT_EPOCH":8962,"BSTAR":-2.142578e-6,"MEAN_MOTION_DOT":-4.23e-6,"MEAN_MOTION_DDOT":0},{"OBJECT_NAME":"CZ-6A DEB","OBJECT_ID":"2022-151AJB","EPOCH":"2026-02-27T14:06:27.470880","MEAN_MOTION":15.13235807,"ECCENTRICITY":0.00651829,"INCLINATION":98.7617,"RA_OF_ASC_NODE":191.4844,"ARG_OF_PERICENTER":85.1472,"MEAN_ANOMALY":275.7194,"EPHEMERIS_TYPE":0,"CLASSIFICATION_TYPE":"U","NORAD_CAT_ID":58433,"ELEMENT_SET_NO":999,"REV_AT_EPOCH":15167,"BSTAR":0.0027921214,"MEAN_MOTION_DOT":0.00052525,"MEAN_MOTION_DDOT":0}]
